[{"OBJECT_NAME":"STARLINK-31224","OBJECT_ID":"2024-038G","EPOCH":"2026-03-09T21:44:54.110976","MEAN_MOTION":15.27573382,"ECCENTRICITY":6.55e-5,"INCLINATION":43.0027,"RA_OF_ASC_NODE":25.5928,"ARG_OF_PERICENTER":264.7705,"MEAN_ANOMALY":95.3072,"EPHEMERIS_TYPE":0,"CLASSIFICATION_TYPE":"U","NORAD_CAT_ID":59029,"ELEMENT_SET_NO":999,"REV_AT_EPOCH":11479,"BSTAR":-1.0485071e-5,"MEAN_MOTION_DOT":-5.5e-6,"MEAN_MOTION_DDOT":0},{"OBJECT_NAME":"PHISAT 2","OBJECT_ID":"2024-149C","EPOCH":"2026-03-09T18:55:12.732384","MEAN_MOTION":15.29548632,"ECCENTRICITY":0.00011753,"INCLINATION":97.3806,"RA_OF_ASC_NODE":148.6498,"ARG_OF_PERICENTER":168.623,"MEAN_ANOMALY":191.5037,"EPHEMERIS_TYPE":0,"CLASSIFICATION_TYPE":"U","NORAD_CAT_ID":60470,"ELEMENT_SET_NO":999,"REV_AT_EPOCH":8679,"BSTAR":0.00031420974,"MEAN_MOTION_DOT":8.925e-5,"MEAN_MOTION_DDOT":0}]
